{
    "links": {
        "self": "http://www.neowsapp.com/rest/v1/neo/3719470?api_key=iIulBulltgU6a56xZRHN4H3l9WmuAYTsLGpBGhQ2"
    },
    "id": "3719470",
    "neo_reference_id": "3719470",
    "name": "(2015 KH19)",
    "designation": "2015 KH19",
    "nasa_jpl_url": "http://ssd.jpl.nasa.gov/sbdb.cgi?sstr=3719470",
    "absolute_magnitude_h": 23.5,
    "estimated_diameter": {
        "kilometers": {
            "estimated_diameter_min": 0.0530340723,
            "estimated_diameter_max": 0.1185877909
        },
        "meters": {
            "estimated_diameter_min": 53.0340723319,
            "estimated_diameter_max": 118.5877908577
        },
        "miles": {
            "estimated_diameter_min": 0.0329538346,
            "estimated_diameter_max": 0.0736870142
        },
        "feet": {
            "estimated_diameter_min": 173.9963058693,
            "estimated_diameter_max": 389.0675677576
        }
    },
    "is_potentially_hazardous_asteroid": false,
    "close_approach_data": [
        {
            "close_approach_date": "2015-05-12",
            "close_approach_date_full": "2015-May-12 21:10",
            "epoch_date_close_approach": 1431465000000,
            "relative_velocity": {
                "kilometers_per_second": "11.9206039038",
                "kilometers_per_hour": "42914.174053577",
                "miles_per_hour": "26665.1988723462"
            },
            "miss_distance": {
                "astronomical": "0.2703637961",
                "lunar": "105.1715166829",
                "kilometers": "40445848.021674307",
                "miles": "25131884.5796951566"
            },
            "orbiting_body": "Earth"
        }
    ],
    "orbital_data": {
        "orbit_id": "4",
        "orbit_determination_date": "2019-07-18 07:27:34",
        "first_observation_date": "2015-05-19",
        "last_observation_date": "2015-05-24",
        "data_arc_in_days": 5,
        "observations_used": 19,
        "orbit_uncertainty": "8",
        "minimum_orbit_intersection": ".269757",
        "jupiter_tisserand_invariant": "4.461",
        "epoch_osculation": "2457164.5",
        "eccentricity": ".150725371294226",
        "semi_major_axis": "1.489983651760842",
        "inclination": "23.65696387009745",
        "ascending_node_longitude": "235.6268545112863",
        "orbital_period": "664.3098345402632",
        "perihelion_distance": "1.265405312626862",
        "perihelion_argument": "333.3767904067279",
        "aphelion_distance": "1.714561990894822",
        "perihelion_time": "2457126.443939275792",
        "mean_anomaly": "20.6231808538498",
        "mean_motion": ".5419158068751739",
        "equinox": "J2000",
        "orbit_class": {
            "orbit_class_type": "AMO",
            "orbit_class_description": "Near-Earth asteroid orbits similar to that of 1221 Amor",
            "orbit_class_range": "1.017 AU < q (perihelion) < 1.3 AU"
        }
    },
    "is_sentry_object": false
}